KUIPER-00204            
1 67145U 25301N   26003.50002314 -.00438087  00000+0 -13194-1 0  9990
2 67145  51.8755  20.0418 0003524  86.4261 294.5881 15.35584930  3825
KUIPER-00210            
1 67146U 25301P   26003.45866098  .00055970  00000+0  16401-2 0  9991
2 67146  51.8602  20.5526 0010494 175.3336 184.7749 15.34612780  3879
KUIPER-00221            
1 67147U 25301Q   26003.50548536  .00050869  00000+0  14260-2 0  9995
2 67147  51.8725  20.1296 0005121 136.8460 223.2928 15.36084311  3713
KUIPER-00232            
1 67148U 25301R   26003.49380892  .00058609  00000+0  15920-2 0  9997
2 67148  51.8744  20.0512 0002472  72.6947 287.4310 15.37010728  3717
KUIPER-00241            
1 67149U 25301S   26003.49928874  .00069133  00000+0  19008-2 0  9991
2 67149  51.8747  20.0855 0002867 113.8373 246.2914 15.36558291  4041
KUIPER-00245            
1 67150U 25301T   26003.44149704 -.00014079  00000+0 -39287-3 0  9998
2 67150  51.8732  20.4500 0005736 142.8267 217.3117 15.35387674  3700
KUIPER-00246            
1 67151U 25301U   26003.50275978  .00052887  00000+0  14718-2 0  9997
2 67151  51.8744  20.1102 0004111 135.7879 224.3436 15.36298915  3730
KUIPER-00247            
1 67152U 25301V   26003.26535472  .00013049  00000+0  39555-3 0  9993
2 67152  51.8632  21.5099 0011122 177.7813 182.3223 15.34416891  3674
KUIPER-00248            
1 67153U 25301W   26003.45271102  .00050354  00000+0  14521-2 0  9997
2 67153  51.8679  20.5214 0009185 165.5026 194.6225 15.35175668  3876
KUIPER-00249            
1 67154U 25301X   26003.45066791  .00056499  00000+0  16199-2 0  9993
2 67154  51.8655  20.5062 0008386 162.5285 197.5991 15.35313417  3708
KUIPER-00250            
1 67155U 25301Y   26003.44463656  .00052959  00000+0  14943-2 0  9996
2 67155  51.8719  20.4711 0006503 151.1078 209.0270 15.35856653  3739
KUIPER-00251            
1 67156U 25301Z   26003.45162947  .00059168  00000+0  17046-2 0  9993
2 67156  51.8667  20.5132 0008965 157.4444 202.6938 15.35136485  3891
