CCSDS_OMM_VERS = 2.0
CREATION_DATE  = 
ORIGINATOR     = 

OBJECT_NAME    = KUIPER-00204
OBJECT_ID      = 2025-301N
CENTER_NAME    = EARTH
REF_FRAME      = TEME
TIME_SYSTEM    = UTC
MEAN_ELEMENT_THEORY = SGP/SGP4

EPOCH          = 2026-01-03T12:00:01.999296
MEAN_MOTION    = 15.35584930
ECCENTRICITY   = .0003524
INCLINATION    = 51.8755
RA_OF_ASC_NODE = 20.0418
ARG_OF_PERICENTER = 86.4261
MEAN_ANOMALY   = 294.5881

EPHEMERIS_TYPE = 0
CLASSIFICATION_TYPE = U
NORAD_CAT_ID   = 67145
ELEMENT_SET_NO = 999
REV_AT_EPOCH   = 382
BSTAR          = -.13194E-1
MEAN_MOTION_DOT = -.438087E-2
MEAN_MOTION_DDOT = 0

CCSDS_OMM_VERS = 2.0
CREATION_DATE  = 
ORIGINATOR     = 

OBJECT_NAME    = KUIPER-00210
OBJECT_ID      = 2025-301P
CENTER_NAME    = EARTH
REF_FRAME      = TEME
TIME_SYSTEM    = UTC
MEAN_ELEMENT_THEORY = SGP/SGP4

EPOCH          = 2026-01-03T11:00:28.308672
MEAN_MOTION    = 15.34612780
ECCENTRICITY   = .0010494
INCLINATION    = 51.8602
RA_OF_ASC_NODE = 20.5526
ARG_OF_PERICENTER = 175.3336
MEAN_ANOMALY   = 184.7749

EPHEMERIS_TYPE = 0
CLASSIFICATION_TYPE = U
NORAD_CAT_ID   = 67146
ELEMENT_SET_NO = 999
REV_AT_EPOCH   = 387
BSTAR          = .16401E-2
MEAN_MOTION_DOT = .5597E-3
MEAN_MOTION_DDOT = 0

CCSDS_OMM_VERS = 2.0
CREATION_DATE  = 
ORIGINATOR     = 

OBJECT_NAME    = KUIPER-00221
OBJECT_ID      = 2025-301Q
CENTER_NAME    = EARTH
REF_FRAME      = TEME
TIME_SYSTEM    = UTC
MEAN_ELEMENT_THEORY = SGP/SGP4

EPOCH          = 2026-01-03T12:07:53.935104
MEAN_MOTION    = 15.36084311
ECCENTRICITY   = .0005121
INCLINATION    = 51.8725
RA_OF_ASC_NODE = 20.1296
ARG_OF_PERICENTER = 136.8460
MEAN_ANOMALY   = 223.2928

EPHEMERIS_TYPE = 0
CLASSIFICATION_TYPE = U
NORAD_CAT_ID   = 67147
ELEMENT_SET_NO = 999
REV_AT_EPOCH   = 371
BSTAR          = .1426E-2
MEAN_MOTION_DOT = .50869E-3
MEAN_MOTION_DDOT = 0

CCSDS_OMM_VERS = 2.0
CREATION_DATE  = 
ORIGINATOR     = 

OBJECT_NAME    = KUIPER-00232
OBJECT_ID      = 2025-301R
CENTER_NAME    = EARTH
REF_FRAME      = TEME
TIME_SYSTEM    = UTC
MEAN_ELEMENT_THEORY = SGP/SGP4

EPOCH          = 2026-01-03T11:51:05.090688
MEAN_MOTION    = 15.37010728
ECCENTRICITY   = .0002472
INCLINATION    = 51.8744
RA_OF_ASC_NODE = 20.0512
ARG_OF_PERICENTER = 72.6947
MEAN_ANOMALY   = 287.4310

EPHEMERIS_TYPE = 0
CLASSIFICATION_TYPE = U
NORAD_CAT_ID   = 67148
ELEMENT_SET_NO = 999
REV_AT_EPOCH   = 371
BSTAR          = .1592E-2
MEAN_MOTION_DOT = .58609E-3
MEAN_MOTION_DDOT = 0

CCSDS_OMM_VERS = 2.0
CREATION_DATE  = 
ORIGINATOR     = 

OBJECT_NAME    = KUIPER-00241
OBJECT_ID      = 2025-301S
CENTER_NAME    = EARTH
REF_FRAME      = TEME
TIME_SYSTEM    = UTC
MEAN_ELEMENT_THEORY = SGP/SGP4

EPOCH          = 2026-01-03T11:58:58.547136
MEAN_MOTION    = 15.36558291
ECCENTRICITY   = .0002867
INCLINATION    = 51.8747
RA_OF_ASC_NODE = 20.0855
ARG_OF_PERICENTER = 113.8373
MEAN_ANOMALY   = 246.2914

EPHEMERIS_TYPE = 0
CLASSIFICATION_TYPE = U
NORAD_CAT_ID   = 67149
ELEMENT_SET_NO = 999
REV_AT_EPOCH   = 404
BSTAR          = .19008E-2
MEAN_MOTION_DOT = .69133E-3
MEAN_MOTION_DDOT = 0

CCSDS_OMM_VERS = 2.0
CREATION_DATE  = 
ORIGINATOR     = 

OBJECT_NAME    = KUIPER-00245
OBJECT_ID      = 2025-301T
CENTER_NAME    = EARTH
REF_FRAME      = TEME
TIME_SYSTEM    = UTC
MEAN_ELEMENT_THEORY = SGP/SGP4

EPOCH          = 2026-01-03T10:35:45.344256
MEAN_MOTION    = 15.35387674
ECCENTRICITY   = .0005736
INCLINATION    = 51.8732
RA_OF_ASC_NODE = 20.4500
ARG_OF_PERICENTER = 142.8267
MEAN_ANOMALY   = 217.3117

EPHEMERIS_TYPE = 0
CLASSIFICATION_TYPE = U
NORAD_CAT_ID   = 67150
ELEMENT_SET_NO = 999
REV_AT_EPOCH   = 370
BSTAR          = -.39287E-3
MEAN_MOTION_DOT = -.14079E-3
MEAN_MOTION_DDOT = 0

CCSDS_OMM_VERS = 2.0
CREATION_DATE  = 
ORIGINATOR     = 

OBJECT_NAME    = KUIPER-00246
OBJECT_ID      = 2025-301U
CENTER_NAME    = EARTH
REF_FRAME      = TEME
TIME_SYSTEM    = UTC
MEAN_ELEMENT_THEORY = SGP/SGP4

EPOCH          = 2026-01-03T12:03:58.444992
MEAN_MOTION    = 15.36298915
ECCENTRICITY   = .0004111
INCLINATION    = 51.8744
RA_OF_ASC_NODE = 20.1102
ARG_OF_PERICENTER = 135.7879
MEAN_ANOMALY   = 224.3436

EPHEMERIS_TYPE = 0
CLASSIFICATION_TYPE = U
NORAD_CAT_ID   = 67151
ELEMENT_SET_NO = 999
REV_AT_EPOCH   = 373
BSTAR          = .14718E-2
MEAN_MOTION_DOT = .52887E-3
MEAN_MOTION_DDOT = 0

CCSDS_OMM_VERS = 2.0
CREATION_DATE  = 
ORIGINATOR     = 

OBJECT_NAME    = KUIPER-00247
OBJECT_ID      = 2025-301V
CENTER_NAME    = EARTH
REF_FRAME      = TEME
TIME_SYSTEM    = UTC
MEAN_ELEMENT_THEORY = SGP/SGP4

EPOCH          = 2026-01-03T06:22:06.647808
MEAN_MOTION    = 15.34416891
ECCENTRICITY   = .0011122
INCLINATION    = 51.8632
RA_OF_ASC_NODE = 21.5099
ARG_OF_PERICENTER = 177.7813
MEAN_ANOMALY   = 182.3223

EPHEMERIS_TYPE = 0
CLASSIFICATION_TYPE = U
NORAD_CAT_ID   = 67152
ELEMENT_SET_NO = 999
REV_AT_EPOCH   = 367
BSTAR          = .39555E-3
MEAN_MOTION_DOT = .13049E-3
MEAN_MOTION_DDOT = 0

CCSDS_OMM_VERS = 2.0
CREATION_DATE  = 
ORIGINATOR     = 

OBJECT_NAME    = KUIPER-00248
OBJECT_ID      = 2025-301W
CENTER_NAME    = EARTH
REF_FRAME      = TEME
TIME_SYSTEM    = UTC
MEAN_ELEMENT_THEORY = SGP/SGP4

EPOCH          = 2026-01-03T10:51:54.232128
MEAN_MOTION    = 15.35175668
ECCENTRICITY   = .0009185
INCLINATION    = 51.8679
RA_OF_ASC_NODE = 20.5214
ARG_OF_PERICENTER = 165.5026
MEAN_ANOMALY   = 194.6225

EPHEMERIS_TYPE = 0
CLASSIFICATION_TYPE = U
NORAD_CAT_ID   = 67153
ELEMENT_SET_NO = 999
REV_AT_EPOCH   = 387
BSTAR          = .14521E-2
MEAN_MOTION_DOT = .50354E-3
MEAN_MOTION_DDOT = 0

CCSDS_OMM_VERS = 2.0
CREATION_DATE  = 
ORIGINATOR     = 

OBJECT_NAME    = KUIPER-00249
OBJECT_ID      = 2025-301X
CENTER_NAME    = EARTH
REF_FRAME      = TEME
TIME_SYSTEM    = UTC
MEAN_ELEMENT_THEORY = SGP/SGP4

EPOCH          = 2026-01-03T10:48:57.707424
MEAN_MOTION    = 15.35313417
ECCENTRICITY   = .0008386
INCLINATION    = 51.8655
RA_OF_ASC_NODE = 20.5062
ARG_OF_PERICENTER = 162.5285
MEAN_ANOMALY   = 197.5991

EPHEMERIS_TYPE = 0
CLASSIFICATION_TYPE = U
NORAD_CAT_ID   = 67154
ELEMENT_SET_NO = 999
REV_AT_EPOCH   = 370
BSTAR          = .16199E-2
MEAN_MOTION_DOT = .56499E-3
MEAN_MOTION_DDOT = 0

CCSDS_OMM_VERS = 2.0
CREATION_DATE  = 
ORIGINATOR     = 

OBJECT_NAME    = KUIPER-00250
OBJECT_ID      = 2025-301Y
CENTER_NAME    = EARTH
REF_FRAME      = TEME
TIME_SYSTEM    = UTC
MEAN_ELEMENT_THEORY = SGP/SGP4

EPOCH          = 2026-01-03T10:40:16.598784
MEAN_MOTION    = 15.35856653
ECCENTRICITY   = .0006503
INCLINATION    = 51.8719
RA_OF_ASC_NODE = 20.4711
ARG_OF_PERICENTER = 151.1078
MEAN_ANOMALY   = 209.0270

EPHEMERIS_TYPE = 0
CLASSIFICATION_TYPE = U
NORAD_CAT_ID   = 67155
ELEMENT_SET_NO = 999
REV_AT_EPOCH   = 373
BSTAR          = .14943E-2
MEAN_MOTION_DOT = .52959E-3
MEAN_MOTION_DDOT = 0

CCSDS_OMM_VERS = 2.0
CREATION_DATE  = 
ORIGINATOR     = 

OBJECT_NAME    = KUIPER-00251
OBJECT_ID      = 2025-301Z
CENTER_NAME    = EARTH
REF_FRAME      = TEME
TIME_SYSTEM    = UTC
MEAN_ELEMENT_THEORY = SGP/SGP4

EPOCH          = 2026-01-03T10:50:20.786208
MEAN_MOTION    = 15.35136485
ECCENTRICITY   = .0008965
INCLINATION    = 51.8667
RA_OF_ASC_NODE = 20.5132
ARG_OF_PERICENTER = 157.4444
MEAN_ANOMALY   = 202.6938

EPHEMERIS_TYPE = 0
CLASSIFICATION_TYPE = U
NORAD_CAT_ID   = 67156
ELEMENT_SET_NO = 999
REV_AT_EPOCH   = 389
BSTAR          = .17046E-2
MEAN_MOTION_DOT = .59168E-3
MEAN_MOTION_DDOT = 0

